H1 CPF 01  gfz 2022 06 05 00  6561 tandemx   
H2 1003001  6202 36605    2022 06 05 00 59 42 2022 06 10 00 00 42   120 1 1  0 0 0
H9
10 0 59735  20142.000000  0   -2578679.267  -1120112.109  -6295804.097
10 0 59735  20262.000000  0   -3402684.327  -1128958.708  -5889453.116
10 0 59735  20382.000000  0   -4167526.720  -1104319.367  -5380210.976
10 0 59735  20502.000000  0   -4859297.167  -1047759.666  -4776883.813
10 0 59735  20622.000000  0   -5465356.350   -961631.016  -4089933.387
10 0 59735  20742.000000  0   -5974573.675   -849008.750  -3331306.478
10 0 59735  20862.000000  0   -6377543.199   -713613.074  -2514234.970
10 0 59735  20982.000000  0   -6666769.752   -559714.453  -1653009.231
10 0 59735  21102.000000  0   -6836821.609   -392026.224   -762729.048
10 0 59735  21222.000000  0   -6884444.489   -215584.855    140966.015
10 0 59735  21342.000000  0   -6808630.315    -35621.822   1042177.841
10 0 59735  21462.000000  0   -6610643.436    142568.613   1925037.066
10 0 59735  21582.000000  0   -6294000.566    313763.063   2773991.972
10 0 59735  21702.000000  0   -5864404.810    472940.986   3574091.290
10 0 59735  21822.000000  0   -5329635.219    615411.368   4311254.195
10 0 59735  21942.000000  0   -4699396.256    736930.498   4972521.406
10 0 59735  22062.000000  0   -3985131.132    833808.206   5546282.757
10 0 59735  22182.000000  0   -3199805.019    903000.401   6022478.298
10 0 59735  22302.000000  0   -2357661.525    942185.341   6392770.850
10 0 59735  22422.000000  0   -1473957.654    949823.049   6650686.998
10 0 59735  22542.000000  0    -564682.446    925196.591   6791723.369
10 0 59735  22662.000000  0     353733.113    868433.896   6813419.340
10 0 59735  22782.000000  0    1264712.088    780510.224   6715396.916
10 0 59735  22902.000000  0    2151829.513    663231.664   6499367.033
10 0 59735  23022.000000  0    2999107.587    519199.392   6169102.052
10 0 59735  23142.000000  0    3791304.828    351755.150   5730374.743
10 0 59735  23262.000000  0    4514193.421    164908.875   5190862.710
10 0 59735  23382.000000  0    5154819.762    -36750.625   4560020.038
10 0 59735  23502.000000  0    5701744.253   -248160.189   3848917.291
10 0 59735  23622.000000  0    6145255.818   -463899.056   3070050.917
10 0 59735  23742.000000  0    6477555.413   -678316.180   2237123.803
10 0 59735  23862.000000  0    6692901.580   -885665.271   1364800.678
10 0 59735  23982.000000  0    6787716.548  -1080244.386    468445.723
10 0 59735  24102.000000  0    6760651.620  -1256536.069   -436155.482
10 0 59735  24222.000000  0    6612605.318  -1409344.936  -1333084.113
10 0 59735  24342.000000  0    6346696.086  -1533928.326  -2206576.634
10 0 59735  24462.000000  0    5968190.351  -1626117.255  -3041309.367
10 0 59735  24582.000000  0    5484388.516  -1682424.645  -3822671.336
10 0 59735  24702.000000  0    4904472.980  -1700137.819  -4537020.645
10 0 59735  24822.000000  0    4239322.702  -1677393.460  -5171919.875
10 0 59735  24942.000000  0    3501298.312  -1613234.492  -5716346.636
10 0 59735  25062.000000  0    2704003.589  -1507647.061  -6160874.976
10 0 59735  25182.000000  0    1862030.655  -1361576.719  -6497827.318
10 0 59735  25302.000000  0     990691.582  -1176924.212  -6721396.757
10 0 59735  25422.000000  0     105741.873   -956522.210  -6827736.561
10 0 59735  25542.000000  0    -776899.493   -704092.293  -6815018.878
10 0 59735  25662.000000  0   -1641429.469   -424183.377  -6683462.724
10 0 59735  25782.000000  0   -2472437.797   -122091.496  -6435330.291
10 0 59735  25902.000000  0   -3255175.101    196236.994  -6074891.222
10 0 59735  26022.000000  0   -3975810.026    524318.003  -5608357.984
10 0 59735  26142.000000  0   -4621674.097    855256.640  -5043789.414
10 0 59735  26262.000000  0   -5181487.677   1181886.003  -4390963.650
10 0 59735  26382.000000  0   -5645565.418   1496917.600  -3661220.395
10 0 59735  26502.000000  0   -6005993.737   1793098.727  -2867272.414
10 0 59735  26622.000000  0   -6256777.540   2063373.044  -2022990.013
10 0 59735  26742.000000  0   -6393952.256   2301041.793  -1143161.175
10 0 59735  26862.000000  0   -6415657.493   2499921.459   -243230.478
10 0 59735  26982.000000  0   -6322168.933   2654493.001    660978.096
10 0 59735  27102.000000  0   -6115886.426   2760039.375   1553547.391
10 0 59735  27222.000000  0   -5801279.246   2812768.028   2418756.334
10 0 59735  27342.000000  0   -5384789.121   2809913.916   3241365.412
10 0 59735  27462.000000  0   -4874694.972   2749820.964   4006892.816
10 0 59735  27582.000000  0   -4280940.796   2631999.371   4701874.211
10 0 59735  27702.000000  0   -3614933.983   2457158.621   5314100.371
10 0 59735  27822.000000  0   -2889318.925   2227215.763   5832830.623
10 0 59735  27942.000000  0   -2117729.257   1945278.533   6248978.463
10 0 59735  28062.000000  0   -1314525.294   1615603.259   6555265.313
10 0 59735  28182.000000  0    -494522.665   1243529.177   6746340.659
10 0 59735  28302.000000  0     327281.260    835390.481   6818868.972
10 0 59735  28422.000000  0    1135980.925    398407.917   6771584.259
10 0 59735  28542.000000  0    1917031.703    -59438.467   6605310.611
10 0 59735  28662.000000  0    2656510.443   -529554.260   6322949.563
10 0 59735  28782.000000  0    3341364.210  -1002891.248   5929433.596
10 0 59735  28902.000000  0    3959643.776  -1470120.252   5431645.332
10 0 59735  29022.000000  0    4500716.298  -1921814.710   4838302.428
10 0 59735  29142.000000  0    4955453.750  -2348640.372   4159811.073
10 0 59735  29262.000000  0    5316395.585  -2741548.590   3408088.589
10 0 59735  29382.000000  0    5577879.679  -3091968.631   2596354.766
10 0 59735  29502.000000  0    5736136.756  -3391993.738   1738897.569
10 0 59735  29622.000000  0    5789348.523  -3634557.815    850818.458
10 0 59735  29742.000000  0    5737666.446  -3813597.200    -52240.898
10 0 59735  29862.000000  0    5583190.895  -3924193.155   -954381.953
10 0 59735  29982.000000  0    5329910.362  -3962691.594  -1839739.144
10 0 59735  30102.000000  0    4983602.527  -3926796.021  -2692766.885
10 0 59735  30222.000000  0    4551700.370  -3815633.359  -3498518.094
10 0 59735  30342.000000  0    4043127.241  -3629790.168  -4242908.912
10 0 59735  30462.000000  0    3468105.482  -3371319.296  -4912963.587
10 0 59735  30582.000000  0    2837944.073  -3043716.611  -5497035.644
10 0 59735  30702.000000  0    2164811.100  -2651870.264  -5985000.845
10 0 59735  30822.000000  0    1461497.066  -2201985.047  -6368422.188
10 0 59735  30942.000000  0     741171.366  -1701480.828  -6640686.569
10 0 59735  31062.000000  0      17137.086  -1158867.451  -6797107.836
10 0 59735  31182.000000  0    -697410.372   -583600.599  -6834997.824
10 0 59735  31302.000000  0   -1389617.685     14079.929  -6753706.906
10 0 59735  31422.000000  0   -2047199.633    623328.131  -6554633.430
10 0 59735  31542.000000  0   -2658651.894   1232883.359  -6241201.859
10 0 59735  31662.000000  0   -3213448.305   1831273.113  -5818810.481
10 0 59735  31782.000000  0   -3702221.395   2407024.452  -5294749.194
10 0 59735  31902.000000  0   -4116924.088   2948881.943  -4678085.688
10 0 59735  32022.000000  0   -4450967.707   3446027.392  -3979518.693
10 0 59735  32142.000000  0   -4699332.437   3888296.945  -3211202.109
10 0 59735  32262.000000  0   -4858649.829   4266391.965  -2386541.502
10 0 59735  32382.000000  0   -4927253.945   4572077.538  -1519964.008
10 0 59735  32502.000000  0   -4905199.960   4798364.765   -626666.608
10 0 59735  32622.000000  0   -4794248.460   4939671.549    277654.523
10 0 59735  32742.000000  0   -4597813.941   4991957.148   1177086.891
10 0 59735  32862.000000  0   -4320880.808   4952825.458   2055791.176
10 0 59735  32982.000000  0   -3969885.442   4821594.790   2898290.058
10 0 59735  33102.000000  0   -3552569.416   4599332.638   3689748.396
10 0 59735  33222.000000  0   -3077808.700   4288855.181   4416239.668
10 0 59735  33342.000000  0   -2555423.099   3894691.814   5064994.346
10 0 59735  33462.000000  0   -1995969.542   3423014.837   5624624.875
10 0 59735  33582.000000  0   -1410525.050   2881536.701   6085322.791
10 0 59735  33702.000000  0    -810464.273   2279377.511   6439025.284
10 0 59735  33822.000000  0    -207237.783   1626906.440   6679548.772
10 0 59735  33942.000000  0     387845.842    935560.670   6802691.931
10 0 59735  34062.000000  0     963831.827    217643.364   6806304.001
10 0 59735  34182.000000  0    1510319.693   -513894.425   6690319.956
10 0 59735  34302.000000  0    2017650.397  -1245686.894   6456762.485
10 0 59735  34422.000000  0    2477077.045  -1964196.880   6109709.130
10 0 59735  34542.000000  0    2880917.508  -2655966.567   5655226.590
10 0 59735  34662.000000  0    3222685.612  -3307871.112   5101269.921
10 0 59735  34782.000000  0    3497198.116  -3907370.730   4457549.261
10 0 59735  34902.000000  0    3700656.907  -4442756.668   3735364.780
10 0 59735  35022.000000  0    3830703.152  -4903386.013   2947410.562
10 0 59735  35142.000000  0    3886442.167  -5279899.474   2107551.528
10 0 59735  35262.000000  0    3868438.548  -5564417.051   1230576.365
10 0 59735  35382.000000  0    3778680.915  -5750706.020    331931.107
10 0 59735  35502.000000  0    3620517.612  -5834316.791   -572559.500
10 0 59735  35622.000000  0    3398565.232  -5812685.204  -1466979.916
10 0 59735  35742.000000  0    3118589.755  -5685194.953  -2335612.863
10 0 59735  35862.000000  0    2787366.722  -5453201.519  -3163222.187
10 0 59735  35982.000000  0    2412522.094  -5120015.762  -3935325.396
10 0 59735  36102.000000  0    2002358.287  -4690848.211  -4638447.887
10 0 59735  36222.000000  0    1565671.067  -4172717.025  -5260354.032
10 0 59735  36342.000000  0    1111562.934  -3574322.966  -5790252.599
10 0 59735  36462.000000  0     649255.406  -2905894.959  -6218974.180
10 0 59735  36582.000000  0     187904.003  -2179009.629  -6539118.669
99
